satname,norad_id,inclination_deg,eccentricity,mean_motion_rev_per_day,perigee_km,apogee_km,l1,l2
STARLINK-1255,45399,53.0541,0.0001127,15.06392744,546.4533073337079,548.0142859112666,1 45399U 20019AR  25250.23455699  .00001623  00000+0  12783-3 0  9994,2 45399  53.0541 240.1832 0001127  90.3568 269.7550 15.06392744302305
STARLINK-1259,45403,53.0498,0.0011055,15.77225888,330.87958268146303,345.72963507869736,1 45403U 20019AV  25250.25001157  .00216141  00000+0  12589-2 0  9994,2 45403  53.0498 211.1462 0011055  34.7999 192.5936 15.77225888  6023
STARLINK-1260,45404,53.0534,0.0001353,15.06387803,546.3119355211047,548.1859449565318,1 45404U 20019AW  25250.26773171  .00001077  00000+0  91191-4 0  9996,2 45404  53.0534 240.0351 0001353  89.7147 270.3997 15.06387803302218
STARLINK-1263,45405,53.0534,0.0001151,15.06396616,546.4248206175298,548.0190382430847,1 45405U 20019AX  25250.25298656  .00003807  00000+0  27434-3 0  9997,2 45405  53.0534 240.0994 0001151  82.7095 277.4025 15.06396616302215
STARLINK-1265,45406,53.0537,0.0001344,15.06390379,546.3102742652809,548.1718158837975,1 45406U 20019AY  25250.26036128  .00000109  00000+0  26219-4 0  9996,2 45406  53.0537 240.0650 0001344  89.6598 270.4545 15.06390379302216
STARLINK-1278,45408,53.0546,0.0001277,15.06401725,546.321904731054,548.0906374024835,1 45408U 20019BA  25250.22072325  .00002760  00000+0  20408-3 0  9991,2 45408  53.0546 270.2461 0001277  87.6219 272.4917 15.06401725301791
STARLINK-1296,45412,53.0544,0.0001488,15.06385217,546.2263674673886,548.2873646819326,1 45412U 20019BE  25250.26404767  .00000453  00000+0  49325-4 0  9996,2 45412  53.0544 240.0498 0001488  86.6683 273.4476 15.06385217302213
STARLINK-1298,45413,53.0511,0.0008354,15.39812561,440.9616720281074,452.36454805196263,1 45413U 20019BF  25250.26678055  .00107760  00000+0  26465-2 0  9997,2 45413  53.0511 231.3153 0008354  35.0242 325.1310 15.39812561302436
STARLINK-1309,45414,53.0547,0.0001246,15.06394874,546.3643680467003,548.0901688223939,1 45414U 20019BG  25250.27878627  .00000053  00000+0  22426-4 0  9998,2 45414  53.0547 239.9842 0001246  88.1214 271.9918 15.06394874302209
STARLINK-1316,45415,53.0545,0.0001396,15.06392818,546.266788089787,548.2003515528822,1 45415U 20019BH  25250.23823800  .00000682  00000+0  64662-4 0  9994,2 45415  53.0545 240.1632 0001396  88.2490 271.8659 15.06392818302232
STARLINK-1318,45416,53.0543,0.0001116,15.5448172,402.9027754364479,404.416472442912,1 45416U 20019BJ  25250.26160196  .00047177  00000+0  70741-3 0  9994,2 45416  53.0543 227.2763 0001116  94.8718 265.2419 15.54481720302402
STARLINK-1286,45417,53.0526,0.000119,15.06398939,546.3906928870138,548.0389266177344,1 45417U 20019BK  25250.20969021  .00000464  00000+0  50047-4 0  9999,2 45417  53.0526 270.2970 0001190 100.5408 259.5715 15.06398939302068
STARLINK-1308,45419,53.0543,0.0001266,15.06398329,546.3399295415411,548.0934290931446,1 45419U 20019BM  25250.27233566  .00001055  00000+0  89724-4 0  9997,2 45419  53.0543 270.0155 0001266  87.6872 272.4262 15.06398329301823
STARLINK-1329,45531,53.0543,0.0001406,15.06419874,546.1769522170571,548.1243431035791,1 45531U 20025A   25250.17466031 -.00004763  00000+0 -30092-3 0  9997,2 45531  53.0543 210.4513 0001406  85.7952 274.3197 15.06419874297436
STARLINK-1338,45532,53.0536,0.0001378,15.06391596,546.2829985270046,548.1916316882489,1 45532U 20025B   25250.18571273  .00001392  00000+0  11234-3 0  9994,2 45532  53.0536 210.3994 0001378  82.7762 277.3383 15.06391596297435
STARLINK-1350,45535,53.0755,0.0002986,15.30742093,471.5510273639784,475.64288288197804,1 45535U 20025E   25250.18779929  .00014883  00000+0  50508-3 0  9991,2 45535  53.0755 171.4052 0002986  91.5294 268.6048 15.30742093298001
STARLINK-1362,45538,53.0544,0.0001334,15.06396472,546.2985278311953,548.1462137113158,1 45538U 20025H   25249.62078853 -.00001273  00000+0 -66556-4 0  9991,2 45538  53.0544 212.6538 0001334  85.2855 274.8286 15.06396472297355
STARLINK-1368,45540,53.0541,0.0001314,15.06383542,546.3520023685642,548.1719972257106,1 45540U 20025K   25250.15623579  .00000872  00000+0  77432-4 0  9992,2 45540  53.0541 210.5308 0001314  92.1366 267.9773 15.06383542297425
STARLINK-1371,45542,53.0545,0.0001343,15.06385491,546.325946007084,548.1861065739467,1 45542U 20025M   25250.19309234  .00001041  00000+0  88818-4 0  9996,2 45542  53.0545 210.3697 0001343  93.8647 266.2495 15.06385491297431
STARLINK-1372,45543,53.0547,0.0001434,15.06388777,546.2528551146725,548.2390549461752,1 45543U 20025N   25250.16360196  .00001691  00000+0  13245-3 0  9990,2 45543  53.0547 210.4983 0001434  93.9899 266.1254 15.06388777296525
STARLINK-1373,45544,53.054,0.0001434,15.06390464,546.2476853847147,548.2338837333264,1 45544U 20025P   25250.18202893  .00001629  00000+0  12827-3 0  9998,2 45544  53.0540 210.4194 0001434  91.1336 268.9818 15.06390464297432
STARLINK-1294,45551,53.0527,0.0005871,15.47988843,418.61736332963756,426.60280055325256,1 45551U 20025W   25250.25001157  .00178853  00000+0  32979-2 0  9997,2 45551  53.0527 161.7449 0005871 133.3774 347.2907 15.47988843  5953
STARLINK-1323,45553,53.0393,0.000937,15.83908812,313.123429237814,325.6746117402108,1 45553U 20025Y   25250.25001157  .00300901  00000+0  12774-2 0  9991,2 45553  53.0393 148.3977 0009370  57.4350  29.2069 15.83908812  5984
STARLINK-1325,45554,53.0621,0.000117,15.44939136,430.7601806436005,432.35364901967114,1 45554U 20025Z   25250.12567423  .00051932  00000+0  10879-2 0  9992,2 45554  53.0621 153.7138 0001170 139.9610 220.1482 15.44939136298236
STARLINK-1327,45555,53.0544,0.0001461,15.06402677,546.1915611053637,548.2151455566081,1 45555U 20025AA  25250.22073826  .00003549  00000+0  25700-3 0  9994,2 45555  53.0544 190.2420 0001461  91.6565 268.4591 15.06402677297718
STARLINK-1336,45557,53.0412,0.0010844,15.78437786,327.5867406944499,342.14590229811165,1 45557U 20025AC  25250.25001157  .00135454  00000+0  75581-3 0  9990,2 45557  53.0412 153.3949 0010844  66.3335  36.7737 15.78437786  5778
STARLINK-1342,45558,53.0476,0.0008621,15.86771483,305.5743133355736,317.1083118421393,1 45558U 20025AD  25250.25001157  .00335992  00000+0  12380-2 0  9997,2 45558  53.0476 150.9279 0008621  66.3653 344.2360 15.86771483  5897
STARLINK-1355,45563,53.032,0.0005343,15.98545946,274.89563020908827,282.00886147719575,1 45563U 20025AJ  25250.25001157  .00449234  96127-4  93392-3 0  9991,2 45563  53.0320  80.9970 0005343 269.8007 134.2149 15.98545946  5979
STARLINK-1356,45564,53.0535,0.0001089,15.06386486,546.4988017430842,548.0071516800117,1 45564U 20025AK  25250.09173551  .00003218  00000+0  23493-3 0  9995,2 45564  53.0535 190.8208 0001089  87.4598 272.6516 15.06386486297693
STARLINK-1357,45565,53.0655,0.0008148,15.2400364,488.17970395300017,499.37817817055384,1 45565U 20025AL  25250.22167831  .00064400  00000+0  26131-2 0  9996,2 45565  53.0655 183.3196 0008148  66.7621 293.4233 15.24003640297819
STARLINK-1361,45567,53.0528,0.0001422,15.06386995,546.2666264441195,548.2362069098217,1 45567U 20025AN  25250.11016135  .00000600  00000+0  59221-4 0  9996,2 45567  53.0528 190.7410 0001422  87.6342 272.4810 15.06386995297704
STARLINK-1363,45568,53.0533,0.0001512,15.06403233,546.1545380728658,548.2487604804064,1 45568U 20025AP  25250.25763384 -.00000801  00000+0 -34847-4 0  9999,2 45568  53.0533 190.3193 0001512  86.3305 273.7857 15.06403233297711
STARLINK-1366,45569,53.0549,0.0001469,15.06393319,546.2146976055747,548.2493710278577,1 45569U 20025AQ  25250.24654360  .00001816  00000+0  14079-3 0  9991,2 45569  53.0549 190.1245 0001469  93.6744 266.4413 15.06393319297714
STARLINK-1376,45570,53.0546,0.000154,15.06396856,546.1546887003642,548.2876990240729,1 45570U 20025AR  25250.10647629  .00000585  00000+0  58188-4 0  9990,2 45570  53.0546 190.7558 0001540  87.6404 272.4762 15.06396856297692
STARLINK-1320,45572,53.0615,0.0008502,15.33738886,458.8511625440842,470.48666972387855,1 45572U 20025AT  25250.13352695  .00049551  00000+0  14975-2 0  9991,2 45572  53.0615 146.0389 0008502 120.7303 239.4537 15.33738886298348
STARLINK-1321,45573,53.0544,0.0001267,15.06396279,546.3455191836074,548.1004053980523,1 45573U 20025AU  25250.09264821  .00004139  00000+0  29659-3 0  9999,2 45573  53.0544 180.8166 0001267  87.3372 272.7762 15.06396279297530
STARLINK-1328,45576,53.0549,0.0001199,15.51235734,412.30273602653506,413.9312787375047,1 45576U 20025AX  25250.25001157  .00323129  00000+0  52132-2 0  9995,2 45576  53.0549 176.7515 0001199  65.9578  70.4102 15.51235734  5798
STARLINK-1331,45578,53.0542,0.0001378,15.06391397,546.2836083550364,548.1922416843718,1 45578U 20025AZ  25250.07055553  .00006796  00000+0  47478-3 0  9992,2 45578  53.0542 180.9175 0001378  82.8490 277.2656 15.06391397297840
STARLINK-1333,45580,53.0533,0.0001125,15.06392236,546.4562491924817,548.0144579720372,1 45580U 20025BB  25250.27602478  .00002810  00000+0  20752-3 0  9990,2 45580  53.0533 189.9963 0001125  88.5919 271.5199 15.06392236297725
STARLINK-1335,45581,53.057,0.0001772,15.06396098,545.996343148483,548.450690915719,1 45581U 20025BC  25250.21428690 -.00000379  00000+0 -65503-5 0  9992,2 45581  53.0570 180.2678 0001772 115.3743 244.7430 15.06396098297850
STARLINK-1337,45582,53.054,0.0001349,15.06394373,546.2945720895732,548.1630357834756,1 45582U 20025BD  25250.23640423 -.00000853  00000+0 -38377-4 0  9990,2 45582  53.0540 180.1732 0001349  76.4315 283.6824 15.06394373297853
STARLINK-1347,45586,53.0571,0.0007407,15.23328454,490.7178219569869,500.9008860858339,1 45586U 20025BH  25250.06262759  .00088647  00000+0  36531-2 0  9990,2 45586  53.0571 174.3023 0007407  73.2934 286.8875 15.23328454297916
STARLINK-1349,45587,53.044,0.0001661,16.04976575,259.557094308012,261.76250260445795,1 45587U 20025BJ  25250.16394209  .01530008  14795-2  22217-2 0  9997,2 45587  53.0440 132.1721 0001661  81.9408 278.1812 16.04976575298523
